CONNECTA T2.1
1 56210U 23054AJ  25275.44498238  .00709881  22890-3  14812-2 0  9996
2 56210  97.3030 190.0352 0005987 148.5292 211.6345 15.99045825139483
